[{"OBJECT_NAME":"BB3","OBJECT_ID":"2023-133D","EPOCH":"2026-03-09T13:04:02.862912","MEAN_MOTION":14.27357433,"ECCENTRICITY":0.0139598,"INCLINATION":81.0042,"RA_OF_ASC_NODE":95.4105,"ARG_OF_PERICENTER":242.6727,"MEAN_ANOMALY":116.0185,"EPHEMERIS_TYPE":0,"CLASSIFICATION_TYPE":"U","NORAD_CAT_ID":57760,"ELEMENT_SET_NO":999,"REV_AT_EPOCH":12768,"BSTAR":0.00021531,"MEAN_MOTION_DOT":5.96e-6,"MEAN_MOTION_DDOT":0},{"OBJECT_NAME":"SL-16 DEB","OBJECT_ID":"1992-093JV","EPOCH":"2026-03-07T14:42:21.036672","MEAN_MOTION":14.03224442,"ECCENTRICITY":0.0087825,"INCLINATION":71.204,"RA_OF_ASC_NODE":199.2813,"ARG_OF_PERICENTER":147.033,"MEAN_ANOMALY":213.6308,"EPHEMERIS_TYPE":0,"CLASSIFICATION_TYPE":"U","NORAD_CAT_ID":39304,"ELEMENT_SET_NO":999,"REV_AT_EPOCH":64676,"BSTAR":0.00059038,"MEAN_MOTION_DOT":9.08e-6,"MEAN_MOTION_DDOT":0}]
